[{"OBJECT_NAME":"GLOBALSTAR M080","OBJECT_ID":"2011-080B","EPOCH":"2026-04-27T01:48:17.396640","MEAN_MOTION":12.6226854,"ECCENTRICITY":7.26e-5,"INCLINATION":52.0042,"RA_OF_ASC_NODE":174.587,"ARG_OF_PERICENTER":143.2414,"MEAN_ANOMALY":225.2202,"EPHEMERIS_TYPE":0,"CLASSIFICATION_TYPE":"U","NORAD_CAT_ID":38041,"ELEMENT_SET_NO":999,"REV_AT_EPOCH":66243,"BSTAR":7.7973242e-5,"MEAN_MOTION_DOT":-9.0e-7,"MEAN_MOTION_DDOT":0},{"OBJECT_NAME":"GLOBALSTAR M082","OBJECT_ID":"2011-080C","EPOCH":"2026-04-27T07:53:59.201952","MEAN_MOTION":12.62269333,"ECCENTRICITY":3.614e-5,"INCLINATION":52.0049,"RA_OF_ASC_NODE":129.3077,"ARG_OF_PERICENTER":144.7212,"MEAN_ANOMALY":228.4085,"EPHEMERIS_TYPE":0,"CLASSIFICATION_TYPE":"U","NORAD_CAT_ID":38042,"ELEMENT_SET_NO":999,"REV_AT_EPOCH":66317,"BSTAR":0.00010927101,"MEAN_MOTION_DOT":-8.4e-7,"MEAN_MOTION_DDOT":0},{"OBJECT_NAME":"GLOBALSTAR M092","OBJECT_ID":"2011-080D","EPOCH":"2026-04-27T07:22:46.748928","MEAN_MOTION":12.62266719,"ECCENTRICITY":4.993e-5,"INCLINATION":52.0085,"RA_OF_ASC_NODE":219.769,"ARG_OF_PERICENTER":122.2742,"MEAN_ANOMALY":271.7024,"EPHEMERIS_TYPE":0,"CLASSIFICATION_TYPE":"U","NORAD_CAT_ID":38043,"ELEMENT_SET_NO":999,"REV_AT_EPOCH":66162,"BSTAR":-8.297042e-6,"MEAN_MOTION_DOT":-1.05e-6,"MEAN_MOTION_DDOT":0},{"OBJECT_NAME":"GLOBALSTAR M090","OBJECT_ID":"2011-080E","EPOCH":"2026-04-27T05:05:39.539616","MEAN_MOTION":12.62268308,"ECCENTRICITY":7.59e-6,"INCLINATION":52.0101,"RA_OF_ASC_NODE":123.6024,"ARG_OF_PERICENTER":96.6801,"MEAN_ANOMALY":344.1281,"EPHEMERIS_TYPE":0,"CLASSIFICATION_TYPE":"U","NORAD_CAT_ID":38044,"ELEMENT_SET_NO":999,"REV_AT_EPOCH":66327,"BSTAR":9.7452696e-5,"MEAN_MOTION_DOT":-8.6e-7,"MEAN_MOTION_DDOT":0},{"OBJECT_NAME":"GLOBALSTAR M086","OBJECT_ID":"2011-080F","EPOCH":"2026-04-27T07:10:28.418592","MEAN_MOTION":12.62285529,"ECCENTRICITY":8.719e-5,"INCLINATION":51.9872,"RA_OF_ASC_NODE":123.3517,"ARG_OF_PERICENTER":306.791,"MEAN_ANOMALY":65.6159,"EPHEMERIS_TYPE":0,"CLASSIFICATION_TYPE":"U","NORAD_CAT_ID":38045,"ELEMENT_SET_NO":999,"REV_AT_EPOCH":66323,"BSTAR":0.00015946722,"MEAN_MOTION_DOT":-7.5e-7,"MEAN_MOTION_DDOT":0},{"OBJECT_NAME":"GLOBALSTAR M097","OBJECT_ID":"2013-005A","EPOCH":"2026-04-27T05:55:33.604608","MEAN_MOTION":12.62260063,"ECCENTRICITY":4.444e-5,"INCLINATION":52.0065,"RA_OF_ASC_NODE":38.3968,"ARG_OF_PERICENTER":76.925,"MEAN_ANOMALY":283.1667,"EPHEMERIS_TYPE":0,"CLASSIFICATION_TYPE":"U","NORAD_CAT_ID":39072,"ELEMENT_SET_NO":999,"REV_AT_EPOCH":61047,"BSTAR":-1.1156393e-5,"MEAN_MOTION_DOT":-1.06e-6,"MEAN_MOTION_DDOT":0},{"OBJECT_NAME":"GLOBALSTAR M093","OBJECT_ID":"2013-005B","EPOCH":"2026-04-27T03:23:43.728576","MEAN_MOTION":12.62264616,"ECCENTRICITY":3.277e-5,"INCLINATION":52.0126,"RA_OF_ASC_NODE":32.0478,"ARG_OF_PERICENTER":84.1132,"MEAN_ANOMALY":275.9772,"EPHEMERIS_TYPE":0,"CLASSIFICATION_TYPE":"U","NORAD_CAT_ID":39073,"ELEMENT_SET_NO":999,"REV_AT_EPOCH":61041,"BSTAR":3.6198202e-5,"MEAN_MOTION_DOT":-9.7e-7,"MEAN_MOTION_DDOT":0},{"OBJECT_NAME":"GLOBALSTAR M094","OBJECT_ID":"2013-005C","EPOCH":"2026-04-27T05:17:50.166528","MEAN_MOTION":12.62267874,"ECCENTRICITY":6.491e-5,"INCLINATION":51.9962,"RA_OF_ASC_NODE":305.9781,"ARG_OF_PERICENTER":114.4848,"MEAN_ANOMALY":245.6087,"EPHEMERIS_TYPE":0,"CLASSIFICATION_TYPE":"U","NORAD_CAT_ID":39074,"ELEMENT_SET_NO":999,"REV_AT_EPOCH":61203,"BSTAR":0.00012094171,"MEAN_MOTION_DOT":-8.2e-7,"MEAN_MOTION_DDOT":0},{"OBJECT_NAME":"GLOBALSTAR M096","OBJECT_ID":"2013-005D","EPOCH":"2026-04-26T23:54:56.170944","MEAN_MOTION":12.62264361,"ECCENTRICITY":6.537e-5,"INCLINATION":52.0099,"RA_OF_ASC_NODE":355.4206,"ARG_OF_PERICENTER":95.0446,"MEAN_ANOMALY":265.0496,"EPHEMERIS_TYPE":0,"CLASSIFICATION_TYPE":"U","NORAD_CAT_ID":39075,"ELEMENT_SET_NO":999,"REV_AT_EPOCH":61092,"BSTAR":0.00010317679,"MEAN_MOTION_DOT":-8.5e-7,"MEAN_MOTION_DDOT":0},{"OBJECT_NAME":"GLOBALSTAR M078","OBJECT_ID":"2013-005E","EPOCH":"2026-04-27T04:58:00.259680","MEAN_MOTION":12.62266002,"ECCENTRICITY":0.00010368,"INCLINATION":51.987,"RA_OF_ASC_NODE":78.8543,"ARG_OF_PERICENTER":129.2195,"MEAN_ANOMALY":230.8764,"EPHEMERIS_TYPE":0,"CLASSIFICATION_TYPE":"U","NORAD_CAT_ID":39076,"ELEMENT_SET_NO":999,"REV_AT_EPOCH":60957,"BSTAR":-1.956993e-5,"MEAN_MOTION_DOT":-1.07e-6,"MEAN_MOTION_DDOT":0},{"OBJECT_NAME":"GLOBALSTAR M095","OBJECT_ID":"2013-005F","EPOCH":"2026-04-27T05:36:37.080000","MEAN_MOTION":12.62267332,"ECCENTRICITY":3.633e-5,"INCLINATION":52.0076,"RA_OF_ASC_NODE":76.3057,"ARG_OF_PERICENTER":128.999,"MEAN_ANOMALY":231.0909,"EPHEMERIS_TYPE":0,"CLASSIFICATION_TYPE":"U","NORAD_CAT_ID":39077,"ELEMENT_SET_NO":999,"REV_AT_EPOCH":60943,"BSTAR":-6.666313e-6,"MEAN_MOTION_DOT":-1.05e-6,"MEAN_MOTION_DDOT":0},{"OBJECT_NAME":"GLOBALSTAR M087","OBJECT_ID":"2022-064A","EPOCH":"2026-04-27T05:55:59.399328","MEAN_MOTION":12.62268388,"ECCENTRICITY":5.775e-5,"INCLINATION":51.9993,"RA_OF_ASC_NODE":217.5378,"ARG_OF_PERICENTER":155.466,"MEAN_ANOMALY":204.6234,"EPHEMERIS_TYPE":0,"CLASSIFICATION_TYPE":"U","NORAD_CAT_ID":52888,"ELEMENT_SET_NO":999,"REV_AT_EPOCH":18470,"BSTAR":1.4225862e-5,"MEAN_MOTION_DOT":-1.01e-6,"MEAN_MOTION_DDOT":0}]
